{
    "links": {
        "self": "http://www.neowsapp.com/rest/v1/neo/54017230?api_key=iIulBulltgU6a56xZRHN4H3l9WmuAYTsLGpBGhQ2"
    },
    "id": "54017230",
    "neo_reference_id": "54017230",
    "name": "(2020 KO4)",
    "designation": "2020 KO4",
    "nasa_jpl_url": "http://ssd.jpl.nasa.gov/sbdb.cgi?sstr=54017230",
    "absolute_magnitude_h": 26.98,
    "estimated_diameter": {
        "kilometers": {
            "estimated_diameter_min": 0.0106795998,
            "estimated_diameter_max": 0.023880311
        },
        "meters": {
            "estimated_diameter_min": 10.6795997524,
            "estimated_diameter_max": 23.8803110188
        },
        "miles": {
            "estimated_diameter_min": 0.0066359936,
            "estimated_diameter_max": 0.0148385327
        },
        "feet": {
            "estimated_diameter_min": 35.0380580515,
            "estimated_diameter_max": 78.3474796028
        }
    },
    "is_potentially_hazardous_asteroid": false,
    "close_approach_data": [
        {
            "close_approach_date": "2020-05-29",
            "close_approach_date_full": "2020-May-29 18:35",
            "epoch_date_close_approach": 1590777300000,
            "relative_velocity": {
                "kilometers_per_second": "11.7858463965",
                "kilometers_per_hour": "42429.0470275728",
                "miles_per_hour": "26363.7598044382"
            },
            "miss_distance": {
                "astronomical": "0.0042339043",
                "lunar": "1.6469887727",
                "kilometers": "633383.065063841",
                "miles": "393565.9867333658"
            },
            "orbiting_body": "Moon"
        },
        {
            "close_approach_date": "2020-05-29",
            "close_approach_date_full": "2020-May-29 23:05",
            "epoch_date_close_approach": 1590793500000,
            "relative_velocity": {
                "kilometers_per_second": "10.9062229665",
                "kilometers_per_hour": "39262.4026794173",
                "miles_per_hour": "24396.1301537746"
            },
            "miss_distance": {
                "astronomical": "0.0040748226",
                "lunar": "1.5851059914",
                "kilometers": "609584.781587862",
                "miles": "378778.4190900156"
            },
            "orbiting_body": "Earth"
        }
    ],
    "orbital_data": {
        "orbit_id": "1",
        "orbit_determination_date": "2020-05-25 19:42:22",
        "first_observation_date": "2020-05-16",
        "last_observation_date": "2020-05-26",
        "data_arc_in_days": 10,
        "observations_used": 23,
        "orbit_uncertainty": "8",
        "minimum_orbit_intersection": ".00389504",
        "jupiter_tisserand_invariant": "3.454",
        "epoch_osculation": "2458991.5",
        "eccentricity": ".5677677624995081",
        "semi_major_axis": "2.175390022161638",
        "inclination": "3.579333581920922",
        "ascending_node_longitude": "65.15071569378527",
        "orbital_period": "1171.936620424651",
        "perihelion_distance": ".9402736967151695",
        "perihelion_argument": "220.4936388754749",
        "aphelion_distance": "3.410506347608107",
        "perihelion_time": "2459028.201534559925",
        "mean_anomaly": "348.7258814074899",
        "mean_motion": ".3071838474247472",
        "equinox": "J2000",
        "orbit_class": {
            "orbit_class_type": "APO",
            "orbit_class_description": "Near-Earth asteroid orbits which cross the Earth’s orbit similar to that of 1862 Apollo",
            "orbit_class_range": "a (semi-major axis) > 1.0 AU; q (perihelion) < 1.017 AU"
        }
    },
    "is_sentry_object": false
}